{
  "norad_id": 55961,
  "name": "STARLINK-5933",
  "history": [
    {
      "epoch": "2026-03-28T18:30:56.195136",
      "apogee_km": 574.3888409329202,
      "perigee_km": 569.687186539627,
      "latitude_deg": -56.534378817429314,
      "longitude_deg": -149.83756095985882,
      "semi_major_axis_km": 6950.175013736273,
      "eccentricity": 0.00033824,
      "inclination_deg": 70.0003,
      "raan_deg": 216.2538,
      "arg_perigee_deg": 273.6538,
      "mean_anomaly_deg": 86.4234,
      "mean_motion_rev_day": 14.98335781
    }
  ]
}